NORAD_CAT_ID,OBJECT_NAME,OBJECT_TYPE,EPOCH,MEAN_MOTION,ECCENTRICITY,INCLINATION,RA_OF_ASC_NODE,ARG_OF_PERICENTER,MEAN_ANOMALY,BSTAR,MEAN_MOTION_DOT,MEAN_MOTION_DDOT,TLE_LINE0,TLE_LINE1,TLE_LINE2,SEMIMAJOR_AXIS,PERIOD,APOGEE,PERIGEE,DECAYED
53554.0,STARLINK-4506,PAYLOAD,2024-08-06 12:42:24,15.08823648,0.0001539,53.2161,148.5744,83.1095,277.0072,8.3925e-05,1.047e-05,0.0,0 STARLINK-4506,1 53554U 22101AD  24219.52944892  .00001047  00000-0  83925-4 0  9992,2 53554  53.2161 148.5744 0001539  83.1095 277.0072 15.08823648108727,6917.93,95.439,540.86,538.731,0.0
53554.0,STARLINK-4506,PAYLOAD,2024-08-07 04:36:16,15.08858994,0.0001498,53.2149,145.6006,81.1357,278.9805,0.001809,0.00028635,0.0,0 STARLINK-4506,1 53554U 22101AD  24220.19185403  .00028635  00000-0  18090-2 0  9993,2 53554  53.2149 145.6006 0001498  81.1357 278.9805 15.08858994108822,6917.822,95.436,540.724,538.651,0.0
53554.0,STARLINK-4506,PAYLOAD,2024-08-08 01:16:15,15.08875278,0.0001356,53.2149,141.7312,90.7423,269.3725,0.0012121,0.00019074,0.0,0 STARLINK-4506,1 53554U 22101AD  24221.05296113  .00019074  00000-0  12121-2 0  9996,2 53554  53.2149 141.7312 0001356  90.7423 269.3725 15.08875278108955,6917.773,95.435,540.576,538.7,0.0
53554.0,STARLINK-4506,PAYLOAD,2024-08-09 04:17:48,15.08860452,0.000132,53.2141,136.6798,73.0042,287.1095,0.00065435,0.00010147,0.0,0 STARLINK-4506,1 53554U 22101AD  24222.17903397  .00010147  00000-0  65435-3 0  9998,2 53554  53.2141 136.6798 0001320  73.0042 287.1095 15.08860452109126,6917.818,95.436,540.596,538.77,0.0
53554.0,STARLINK-4506,PAYLOAD,2024-08-09 18:36:17,15.08840753,0.0001504,53.2162,133.9962,75.334,284.7818,0.00058563,9.045e-05,0.0,0 STARLINK-4506,1 53554U 22101AD  24222.77519695  .00009045  00000-0  58563-3 0  9997,2 53554  53.2162 133.9962 0001504  75.3340 284.7818 15.08840753109210,6917.878,95.438,540.784,538.703,0.0
53554.0,STARLINK-4506,PAYLOAD,2024-08-09 21:47:03,15.08840842,5.4e-05,53.2156,133.4049,111.9203,248.1847,4.9209e-05,4.96e-06,0.0,0 STARLINK-4506,1 53554U 22101AD  24222.90767582  .00000496  00000-0  49209-4 0  9991,2 53554  53.2156 133.4049 0000540 111.9203 248.1847 15.08840842109235,6917.878,95.438,540.116,539.369,0.0
53554.0,STARLINK-4506,PAYLOAD,2024-08-10 00:57:49,15.08838974,0.0001535,53.2159,132.8122,113.1628,246.9526,-3.7143e-05,-8.79e-06,0.0,0 STARLINK-4506,1 53554U 22101AD  24223.04015639 -.00000879  00000-0 -37143-4 0  9997,2 53554  53.2159 132.8122 0001535 113.1628 246.9526 15.08838974109258,6917.884,95.438,540.81,538.687,0.0
53554.0,STARLINK-4506,PAYLOAD,2024-08-10 21:37:50,15.08831852,0.000136,53.2156,128.9403,111.5914,248.5223,0.00010736,1.421e-05,0.0,0 STARLINK-4506,1 53554U 22101AD  24223.90128236  .00001421  00000-0  10736-3 0  9990,2 53554  53.2156 128.9403 0001360 111.5914 248.5223 15.08831852109383,6917.905,95.438,540.711,538.829,0.0
53554.0,STARLINK-4506,PAYLOAD,2024-08-11 00:48:39,15.08769336,0.000179,53.2161,128.3468,69.2682,290.8502,-0.0011408,-0.00018363,0.0,0 STARLINK-4506,1 53554U 22101AD  24224.03379093 -.00018363  00000-0 -11408-2 0  9995,2 53554  53.2161 128.3468 0001790  69.2682 290.8502 15.08769336109402,6918.096,95.442,541.2,538.723,0.0
53554.0,STARLINK-4506,PAYLOAD,2024-08-11 10:20:57,15.08813351,9.64e-05,53.2163,126.5634,77.0381,283.0719,-0.00013599,-2.45e-05,0.0,0 STARLINK-4506,1 53554U 22101AD  24224.43122266 -.00002450  00000-0 -13599-3 0  9991,2 53554  53.2163 126.5634 0000964  77.0381 283.0719 15.08813351109461,6917.962,95.439,540.494,539.16,0.0
53554.0,STARLINK-4506,PAYLOAD,2024-08-11 21:28:39,15.08845848,0.0001902,53.217,124.4918,107.8658,252.2542,0.00061908,9.58e-05,0.0,0 STARLINK-4506,1 53554U 22101AD  24224.89489856  .00009580  00000-0  61908-3 0  9998,2 53554  53.2170 124.4918 0001902 107.8658 252.2542 15.08845848109539,6917.863,95.437,541.043,538.412,0.0
53554.0,STARLINK-4506,PAYLOAD,2024-08-12 02:14:47,15.08867786,0.0001399,53.2163,123.5937,99.0505,261.0646,0.0010317,0.00016182,0.0,0 STARLINK-4506,1 53554U 22101AD  24225.09361016  .00016182  00000-0  10317-2 0  9991,2 53554  53.2163 123.5937 0001399  99.0505 261.0646 15.08867786109566,6917.795,95.436,540.628,538.693,0.0
53554.0,STARLINK-4506,PAYLOAD,2024-08-12 10:11:42,15.08896437,0.0002815,53.2154,122.1059,70.5409,289.5887,0.0015901,0.00025149,0.0,0 STARLINK-4506,1 53554U 22101AD  24225.42479943  .00025149  00000-0  15901-2 0  9994,2 53554  53.2154 122.1059 0002815  70.5409 289.5887 15.08896437109610,6917.708,95.434,541.52,537.626,0.0
53554.0,STARLINK-4506,PAYLOAD,2024-08-12 16:33:15,15.08849808,0.0001595,53.2154,120.9181,73.4555,286.6612,0.0003603,5.452e-05,0.0,0 STARLINK-4506,1 53554U 22101AD  24225.68976527  .00005452  00000-0  36030-3 0  9994,2 53554  53.2154 120.9181 0001595  73.4555 286.6612 15.08849808109658,6917.85,95.437,540.819,538.612,0.0
53554.0,STARLINK-4506,PAYLOAD,2024-08-12 22:54:49,15.08807105,0.0001963,53.2153,119.7284,56.158,303.9599,-0.00089035,-0.00014418,0.0,0 STARLINK-4506,1 53554U 22101AD  24225.95473711 -.00014418  00000-0 -89035-3 0  9998,2 53554  53.2153 119.7284 0001963  56.1580 303.9599 15.08807105109697,6917.981,95.44,541.204,538.488,0.0
53554.0,STARLINK-4506,PAYLOAD,2024-08-13 02:05:35,15.08806692,0.000158,53.2156,119.1341,87.7102,272.4071,-0.0009789,-0.00015819,0.0,0 STARLINK-4506,1 53554U 22101AD  24226.08721652 -.00015819  00000-0 -97890-3 0  9997,2 53554  53.2156 119.1341 0001580  87.7102 272.4071 15.08806692109711,6917.982,95.44,540.94,538.754,0.0
53554.0,STARLINK-4506,PAYLOAD,2024-08-13 10:02:31,15.08806824,0.0001451,53.2154,117.6463,92.754,267.3618,-0.0010223,-0.00016506,0.0,0 STARLINK-4506,1 53554U 22101AD  24226.41841793 -.00016506  00000-0 -10223-2 0  9991,2 53554  53.2154 117.6463 0001451  92.7540 267.3618 15.08806824109768,6917.982,95.44,540.851,538.843,0.0
53554.0,STARLINK-4506,PAYLOAD,2024-08-13 22:45:36,15.08808373,5.48e-05,53.2153,115.267,118.958,241.1467,-0.00065264,-0.0001065,0.0,0 STARLINK-4506,1 53554U 22101AD  24226.94834274 -.00010650  00000-0 -65264-3 0  9995,2 53554  53.2153 115.2670 0000548 118.9580 241.1467 15.08808373109844,6917.977,95.44,540.221,539.463,0.0
53554.0,STARLINK-4506,PAYLOAD,2024-08-14 00:20:59,15.08826585,0.0001396,53.215,114.971,94.9925,265.1226,-0.00017735,-3.108e-05,0.0,0 STARLINK-4506,1 53554U 22101AD  24227.01457976 -.00003108  00000-0 -17735-3 0  9994,2 53554  53.2150 114.9710 0001396  94.9925 265.1226 15.08826585109855,6917.921,95.438,540.752,538.821,0.0
53554.0,STARLINK-4506,PAYLOAD,2024-08-14 09:53:19,15.08840338,0.0001502,53.2151,113.1867,95.6132,264.5031,0.0014449,0.00022783,0.0,0 STARLINK-4506,1 53554U 22101AD  24227.41202829  .00022783  00000-0  14449-2 0  9999,2 53554  53.2151 113.1867 0001502  95.6132 264.5031 15.08840338109913,6917.879,95.438,540.783,538.705,0.0
53554.0,STARLINK-4506,PAYLOAD,2024-08-14 22:36:23,15.088731,0.0001385,53.2147,110.8073,99.4522,260.6627,0.0015034,0.00023741,0.0,0 STARLINK-4506,1 53554U 22101AD  24227.94193995  .00023741  00000-0  15034-2 0  9996,2 53554  53.2147 110.8073 0001385  99.4522 260.6627 15.08873100109994,6917.779,95.435,540.602,538.686,0.0
53554.0,STARLINK-4506,PAYLOAD,2024-08-15 09:44:04,15.08890249,0.0001323,53.2151,108.7254,99.2208,260.8933,0.0013952,0.00022017,0.0,0 STARLINK-4506,1 53554U 22101AD  24228.40560734  .00022017  00000-0  13952-2 0  9999,2 53554  53.2151 108.7254 0001323  99.2208 260.8933 15.08890249110062,6917.727,95.434,540.507,538.677,0.0
53554.0,STARLINK-4506,PAYLOAD,2024-08-15 22:27:09,15.08838313,0.0001313,53.2155,106.3464,118.2211,241.8914,0.0010414,0.00016324,0.0,0 STARLINK-4506,1 53554U 22101AD  24228.93552978  .00016324  00000-0  10414-2 0  9992,2 53554  53.2155 106.3464 0001313 118.2211 241.8914 15.08838313110149,6917.886,95.438,540.659,538.842,0.0
53554.0,STARLINK-4506,PAYLOAD,2024-08-17 01:28:43,15.08853635,0.0001276,53.216,101.2917,114.8937,245.2188,0.00070945,0.00011025,0.0,0 STARLINK-4506,1 53554U 22101AD  24230.06160880  .00011025  00000-0  70945-3 0  9995,2 53554  53.2160 101.2917 0001276 114.8937 245.2188 15.08853635110311,6917.839,95.437,540.586,538.821,0.0
53554.0,STARLINK-4506,PAYLOAD,2024-08-17 15:47:11,15.08842484,0.0001641,53.2174,98.6116,132.406,227.7071,0.00017976,2.574e-05,0.0,0 STARLINK-4506,1 53554U 22101AD  24230.65776854  .00002574  00000-0  17976-3 0  9998,2 53554  53.2174  98.6116 0001641 132.4060 227.7071 15.08842484110401,6917.873,95.437,540.873,538.603,0.0
53554.0,STARLINK-4506,PAYLOAD,2024-08-18 20:24:08,15.08835556,0.0001135,53.2164,93.2604,106.8447,253.267,2.5641e-05,1.2e-06,0.0,0 STARLINK-4506,1 53554U 22101AD  24231.85009429  .00000120  00000-0  25641-4 0  9992,2 53554  53.2164  93.2604 0001135 106.8447 253.2670 15.08835556110585,6917.894,95.438,540.544,538.974,0.0
53554.0,STARLINK-4506,PAYLOAD,2024-08-19 07:31:49,15.08843255,9.98e-05,53.2168,91.179,98.6571,261.4534,0.0001146,1.537e-05,0.0,0 STARLINK-4506,1 53554U 22101AD  24232.31377063  .00001537  00000-0  11460-3 0  9992,2 53554  53.2168  91.1790 0000998  98.6571 261.4534 15.08843255110657,6917.87,95.437,540.426,539.045,0.0
53554.0,STARLINK-4506,PAYLOAD,2024-08-19 23:25:42,15.08830609,0.0001394,53.2171,88.206,83.9462,276.1689,3.6916e-05,3e-06,0.0,0 STARLINK-4506,1 53554U 22101AD  24232.97618406  .00000300  00000-0  36916-4 0  9994,2 53554  53.2171  88.2060 0001394  83.9462 276.1689 15.08830609110759,6917.909,95.438,540.738,538.81,0.0
53554.0,STARLINK-4506,PAYLOAD,2024-08-20 07:22:37,15.08841001,0.0001203,53.2175,86.719,88.8183,271.2947,0.00012618,1.721e-05,0.0,0 STARLINK-4506,1 53554U 22101AD  24233.30737540  .00001721  00000-0  12618-3 0  9993,2 53554  53.2175  86.7190 0001203  88.8183 271.2947 15.08841001110800,6917.877,95.437,540.575,538.91,0.0
53554.0,STARLINK-4506,PAYLOAD,2024-08-20 23:16:28,15.08842004,0.0001246,53.2175,83.7456,85.2148,274.8986,0.00014731,2.057e-05,0.0,0 STARLINK-4506,1 53554U 22101AD  24233.96977653  .00002057  00000-0  14731-3 0  9997,2 53554  53.2175  83.7456 0001246  85.2148 274.8986 15.08842004110908,6917.874,95.437,540.601,538.877,0.0
